[{"OBJECT_NAME":"STARLINK-35295","OBJECT_ID":"2025-235N","EPOCH":"2026-03-09T17:34:39.272736","MEAN_MOTION":15.30203136,"ECCENTRICITY":0.00010524,"INCLINATION":53.1601,"RA_OF_ASC_NODE":245.3746,"ARG_OF_PERICENTER":114.8619,"MEAN_ANOMALY":245.2492,"EPHEMERIS_TYPE":0,"CLASSIFICATION_TYPE":"U","NORAD_CAT_ID":66070,"ELEMENT_SET_NO":999,"REV_AT_EPOCH":2292,"BSTAR":0.00062053483,"MEAN_MOTION_DOT":0.00018066,"MEAN_MOTION_DDOT":0},{"OBJECT_NAME":"PEGASUS DEB","OBJECT_ID":"1994-029AER","EPOCH":"2026-02-26T06:39:21.581568","MEAN_MOTION":15.03561005,"ECCENTRICITY":0.01227406,"INCLINATION":81.7323,"RA_OF_ASC_NODE":356.2383,"ARG_OF_PERICENTER":77.7128,"MEAN_ANOMALY":283.7806,"EPHEMERIS_TYPE":0,"CLASSIFICATION_TYPE":"U","NORAD_CAT_ID":39306,"ELEMENT_SET_NO":999,"REV_AT_EPOCH":9218,"BSTAR":0.0046128236,"MEAN_MOTION_DOT":0.00074995,"MEAN_MOTION_DDOT":0}]
